{
  "norad_id": 59927,
  "name": "STARLINK-31968",
  "history": [
    {
      "epoch": "2026-03-28T18:24:58.059360Z",
      "apogee_km": 483.93992516844355,
      "perigee_km": 482.1595844293088,
      "latitude_deg": 1.50642784844952e-05,
      "longitude_deg": 122.08954270325938,
      "height_km": 483.05018713094904,
      "semi_major_axis_km": 6861.186754798876,
      "eccentricity": 0.00012974,
      "inclination_deg": 43.003,
      "raan_deg": 224.5145,
      "arg_perigee_deg": 255.4555,
      "mean_anomaly_deg": 104.6153,
      "mean_motion_rev_day": 15.2757978
    },
    {
      "epoch": "2026-03-30T01:48:06.581952Z",
      "apogee_km": 483.9125947290804,
      "perigee_km": 482.2320101225441,
      "latitude_deg": -2.2448591585050535e-05,
      "longitude_deg": 2.6310274799553492,
      "height_km": 482.8589867354226,
      "semi_major_axis_km": 6861.209302425812,
      "eccentricity": 0.00012247,
      "inclination_deg": 43.004,
      "raan_deg": 217.1305,
      "arg_perigee_deg": 269.3398,
      "mean_anomaly_deg": 90.7313,
      "mean_motion_rev_day": 15.2757225
    },
    {
      "epoch": "2026-03-30T09:38:53.698560Z",
      "apogee_km": 483.8764310555125,
      "perigee_km": 482.2732402979882,
      "latitude_deg": 6.054585579394983e-05,
      "longitude_deg": -117.2344439148762,
      "height_km": 482.9091700211799,
      "semi_major_axis_km": 6861.21183567675,
      "eccentricity": 0.00011683,
      "inclination_deg": 43.0029,
      "raan_deg": 215.2835,
      "arg_perigee_deg": 265.885,
      "mean_anomaly_deg": 94.1869,
      "mean_motion_rev_day": 15.27571404
    },
    {
      "epoch": "2026-03-30T17:29:40.277760Z",
      "apogee_km": 483.6800822394498,
      "perigee_km": 482.43916621799235,
      "latitude_deg": 6.310943563152735e-05,
      "longitude_deg": 122.90204425756674,
      "height_km": 483.06071255359427,
      "semi_major_axis_km": 6861.196624228721,
      "eccentricity": 9.043e-05,
      "inclination_deg": 43.0021,
      "raan_deg": 213.4363,
      "arg_perigee_deg": 248.7702,
      "mean_anomaly_deg": 111.3054,
      "mean_motion_rev_day": 15.27576484
    },
    {
      "epoch": "2026-03-31T07:37:04.732896Z",
      "apogee_km": 483.6510951634773,
      "perigee_km": 482.48057395990054,
      "latitude_deg": 3.5682592812636905e-05,
      "longitude_deg": -92.85341051207055,
      "height_km": 482.975744182359,
      "semi_major_axis_km": 6861.202834561688,
      "eccentricity": 8.53e-05,
      "inclination_deg": 43.0018,
      "raan_deg": 210.1128,
      "arg_perigee_deg": 256.8122,
      "mean_anomaly_deg": 103.2635,
      "mean_motion_rev_day": 15.2757441
    },
    {
      "epoch": "2026-04-01T08:43:35.856480Z",
      "apogee_km": 483.6255044147565,
      "perigee_km": 482.55515295148143,
      "latitude_deg": -3.522379015417709e-05,
      "longitude_deg": -116.42224174648608,
      "height_km": 482.82285028904204,
      "semi_major_axis_km": 6861.227328683119,
      "eccentricity": 7.8e-05,
      "inclination_deg": 43.0009,
      "raan_deg": 204.2049,
      "arg_perigee_deg": 274.6891,
      "mean_anomaly_deg": 85.3871,
      "mean_motion_rev_day": 15.2756623
    },
    {
      "epoch": "2026-04-02T08:15:55.376352Z",
      "apogee_km": 483.6691750018572,
      "perigee_km": 482.4030141189878,
      "latitude_deg": 1.8388925379425134e-05,
      "longitude_deg": -116.00891868747348,
      "height_km": 482.73174633994756,
      "semi_major_axis_km": 6861.173094560422,
      "eccentricity": 9.227e-05,
      "inclination_deg": 43.0013,
      "raan_deg": 198.6662,
      "arg_perigee_deg": 277.3314,
      "mean_anomaly_deg": 82.7433,
      "mean_motion_rev_day": 15.27584342
    },
    {
      "epoch": "2026-04-03T15:39:07.431840Z",
      "apogee_km": 483.8852020461554,
      "perigee_km": 482.556843132983,
      "latitude_deg": 1.1127997336390888e-05,
      "longitude_deg": 124.51583754814686,
      "height_km": 483.1543330699008,
      "semi_major_axis_km": 6861.358022589569,
      "eccentricity": 9.68e-05,
      "inclination_deg": 43.0011,
      "raan_deg": 191.2802,
      "arg_perigee_deg": 256.3359,
      "mean_anomaly_deg": 103.7385,
      "mean_motion_rev_day": 15.27522585
    }
  ]
}